CTC1_L_00375016-03
1 10062U 26306WF  26075.70034722  .00000000  00000+0  00000-0 0  9990
2 10062  65.0000 180.0000 0000000   0.0000   0.0000 13.16009679    14
CTC1_L_00375016-04
1 10063U 26483NY  26075.70034722  .00000000  00000+0  00000-0 0  9997
2 10063  65.0000 180.0000 0000000   0.0000  90.0000 13.16009679    14
CTC1_L_00375017-01
1 10064U 22904TJ  26075.70034722  .00000000  00000+0  00000-0 0  9992
2 10064  65.0000 192.0000 0000000   0.0000 192.0000 13.16009679    11
CTC1_L_00375017-02
1 10065U 23471TS  26075.70034722  .00000000  00000+0  00000-0 0  9993
2 10065  65.0000 192.0000 0000000   0.0000 282.0000 13.16009679    12
CTC1_L_00375017-03
1 10066U 23801ZT  26075.70034722  .00000000  00000+0  00000-0 0  9991
2 10066  65.0000 192.0000 0000000   0.0000  12.0000 13.16009679    14
CTC1_L_00375017-04
1 10067U 25822ZA  26075.70034722  .00000000  00000+0  00000-0 0  9997
2 10067  65.0000 192.0000 0000000   0.0000 102.0000 13.16009679    15
CTC1_L_00375018-01
1 10068U 23613KW  26075.70034722  .00000000  00000+0  00000-0 0  9994
2 10068  65.0000 204.0000 0000000   0.0000 204.0000 13.16009679    13
CTC1_L_00375018-02
1 10069U 23229HH  26075.70034722  .00000000  00000+0  00000-0 0  9998
2 10069  65.0000 204.0000 0000000   0.0000 294.0000 13.16009679    13
CTC1_L_00375018-03
1 10070U 24527OH  26075.70034722  .00000000  00000+0  00000-0 0  9992
2 10070  65.0000 204.0000 0000000   0.0000  24.0000 13.16009679    16
CTC1_L_00375018-04
1 10071U 22973ZD  26075.70034722  .00000000  00000+0  00000-0 0  9996
2 10071  65.0000 204.0000 0000000   0.0000 114.0000 13.16009679    17
CTC1_L_00375019-01
1 10072U 22529KW  26075.70034722  .00000000  00000+0  00000-0 0  9994
2 10072  65.0000 216.0000 0000000   0.0000 216.0000 13.16009679    14
CTC1_L_00375019-02
1 10073U 22783AH  26075.70034722  .00000000  00000+0  00000-0 0  9997
2 10073  65.0000 216.0000 0000000   0.0000 306.0000 13.16009679    15
CTC1_L_00375019-03
1 10074U 24294OS  26075.70034722  .00000000  00000+0  00000-0 0  9997
2 10074  65.0000 216.0000 0000000   0.0000  36.0000 13.16009679    16
CTC1_L_00375019-04
1 10075U 24937JU  26075.70034722  .00000000  00000+0  00000-0 0  9992
2 10075  65.0000 216.0000 0000000   0.0000 126.0000 13.16009679    17
CTC1_L_00375020-01
1 10076U 22102TL  26075.70034722  .00000000  00000+0  00000-0 0  9995
2 10076  65.0000 228.0000 0000000   0.0000 228.0000 13.16009679    14
CTC1_L_00375020-02
1 10077U 22567ED  26075.70034722  .00000000  00000+0  00000-0 0  9991
2 10077  65.0000 228.0000 0000000   0.0000 318.0000 13.16009679    15
CTC1_L_00375020-03
1 10078U 24268RR  26075.70034722  .00000000  00000+0  00000-0 0  9992
2 10078  65.0000 228.0000 0000000   0.0000  48.0000 13.16009679    16
CTC1_L_00375020-04
1 10079U 23773HW  26075.70034722  .00000000  00000+0  00000-0 0  9993
2 10079  65.0000 228.0000 0000000   0.0000 138.0000 13.16009679    17
CTC1_L_00375021-01
1 10080U 22248AE  26075.70034722  .00000000  00000+0  00000-0 0  9991
2 10080  65.0000 240.0000 0000000   0.0000 240.0000 13.16009679    17
CTC1_L_00375021-02
1 10081U 23488CY  26075.70034722  .00000000  00000+0  00000-0 0  9999
2 10081  65.0000 240.0000 0000000   0.0000 330.0000 13.16009679    18
CTC1_L_00375021-03
1 10082U 24333II  26075.70034722  .00000000  00000+0  00000-0 0  9990
2 10082  65.0000 240.0000 0000000   0.0000  60.0000 13.16009679    19
CTC1_L_00375021-04
1 10083U 22277JE  26075.70034722  .00000000  00000+0  00000-0 0  9996
2 10083  65.0000 240.0000 0000000   0.0000 150.0000 13.16009679    10
CTC1_L_00375022-01
1 10084U 25809HH  26075.70034722  .00000000  00000+0  00000-0 0  9991
2 10084  65.0000 252.0000 0000000   0.0000 252.0000 13.16009679    17
CTC1_L_00375022-02
1 10085U 26241IT  26075.70034722  .00000000  00000+0  00000-0 0  9993
2 10085  65.0000 252.0000 0000000   0.0000 342.0000 13.16009679    18
CTC1_L_00375022-03
1 10086U 26773G   26075.70034722  .00000000  00000+0  00000-0 0  9994
2 10086  65.0000 252.0000 0000000   0.0000  72.0000 13.16009679    19
CTC1_L_00375022-04
1 10087U 24225ZE  26075.70034722  .00000000  00000+0  00000-0 0  9995
2 10087  65.0000 252.0000 0000000   0.0000 162.0000 13.16009679    10
CTC1_L_00375023-01
1 10088U 23032QV  26075.70034722  .00000000  00000+0  00000-0 0  9991
2 10088  65.0000 264.0000 0000000   0.0000 264.0000 13.16009679    17
CTC1_L_00375023-02
1 10089U 25940XH  26075.70034722  .00000000  00000+0  00000-0 0  9992
2 10089  65.0000 264.0000 0000000   0.0000 354.0000 13.16009679    18
CTC1_L_00375023-03
1 10090U 26447OW  26075.70034722  .00000000  00000+0  00000-0 0  9997
2 10090  65.0000 264.0000 0000000   0.0000  84.0000 13.16009679    10
CTC1_L_00375023-04
1 10091U 22628PH  26075.70034722  .00000000  00000+0  00000-0 0  9995
2 10091  65.0000 264.0000 0000000   0.0000 174.0000 13.16009679    11
CTC1_L_00375024-01
1 10092U 25117CZ  26075.70034722  .00000000  00000+0  00000-0 0  9992
2 10092  65.0000 276.0000 0000000   0.0000 276.0000 13.16009679    18
CTC1_L_00375024-02
1 10093U 23583KC  26075.70034722  .00000000  00000+0  00000-0 0  9998
2 10093  65.0000 276.0000 0000000   0.0000   6.0000 13.16009679    10
CTC1_L_00375024-03
1 10094U 23866KJ  26075.70034722  .00000000  00000+0  00000-0 0  9993
2 10094  65.0000 276.0000 0000000   0.0000  96.0000 13.16009679    10
CTC1_L_00375024-04
1 10095U 22642FS  26075.70034722  .00000000  00000+0  00000-0 0  9995
2 10095  65.0000 276.0000 0000000   0.0000 186.0000 13.16009679    11
CTC1_L_00375025-01
1 10096U 26130VO  26075.70034722  .00000000  00000+0  00000-0 0  9992
2 10096  65.0000 288.0000 0000000   0.0000 288.0000 13.16009679    18
CTC1_L_00375025-02
1 10097U 25876ML  26075.70034722  .00000000  00000+0  00000-0 0  9999
2 10097  65.0000 288.0000 0000000   0.0000  18.0000 13.16009679    10
CTC1_L_00375025-03
1 10098U 22457QL  26075.70034722  .00000000  00000+0  00000-0 0  9992
2 10098  65.0000 288.0000 0000000   0.0000 108.0000 13.16009679    11
CTC1_L_00375025-04
1 10099U 25638BE  26075.70034722  .00000000  00000+0  00000-0 0  9997
2 10099  65.0000 288.0000 0000000   0.0000 198.0000 13.16009679    11
CTC1_L_00375026-01
1 10100U 26785GT  26075.70034722  .00000000  00000+0  00000-0 0  9994
2 10100  65.0000 300.0000 0000000   0.0000 300.0000 13.16009679    14
CTC1_L_00375026-02
1 10101U 22926ND  26075.70034722  .00000000  00000+0  00000-0 0  9998
2 10101  65.0000 300.0000 0000000   0.0000  30.0000 13.16009679    15
CTC1_L_00375026-03
1 10102U 24328FU  26075.70034722  .00000000  00000+0  00000-0 0  9997
2 10102  65.0000 300.0000 0000000   0.0000 120.0000 13.16009679    16
CTC1_L_00375026-04
1 10103U 23283ZX  26075.70034722  .00000000  00000+0  00000-0 0  9997
2 10103  65.0000 300.0000 0000000   0.0000 210.0000 13.16009679    17
CTC1_L_00375027-01
1 10104U 26284HM  26075.70034722  .00000000  00000+0  00000-0 0  9992
2 10104  65.0000 312.0000 0000000   0.0000 312.0000 13.16009679    14
CTC1_L_00375027-02
1 10105U 26486UH  26075.70034722  .00000000  00000+0  00000-0 0  9997
2 10105  65.0000 312.0000 0000000   0.0000  42.0000 13.16009679    15
CTC1_L_00375027-03
1 10106U 22043VD  26075.70034722  .00000000  00000+0  00000-0 0  9993
2 10106  65.0000 312.0000 0000000   0.0000 132.0000 13.16009679    16
CTC1_L_00375027-04
1 10107U 22036JQ  26075.70034722  .00000000  00000+0  00000-0 0  9996
2 10107  65.0000 312.0000 0000000   0.0000 222.0000 13.16009679    17
CTC1_L_00375028-01
1 10108U 22618FJ  26075.70034722  .00000000  00000+0  00000-0 0  9993
2 10108  65.0000 324.0000 0000000   0.0000 324.0000 13.16009679    14
CTC1_L_00375028-02
1 10109U 26540IT  26075.70034722  .00000000  00000+0  00000-0 0  9992
2 10109  65.0000 324.0000 0000000   0.0000  54.0000 13.16009679    15
CTC1_L_00375028-03
1 10110U 23044YG  26075.70034722  .00000000  00000+0  00000-0 0  9990
2 10110  65.0000 324.0000 0000000   0.0000 144.0000 13.16009679    17
CTC1_L_00375028-04
1 10111U 23596BZ  26075.70034722  .00000000  00000+0  00000-0 0  9993
2 10111  65.0000 324.0000 0000000   0.0000 234.0000 13.16009679    18
CTC1_L_00375029-01
1 10112U 23933QE  26075.70034722  .00000000  00000+0  00000-0 0  9999
2 10112  65.0000 336.0000 0000000   0.0000 336.0000 13.16009679    15
CTC1_L_00375029-02
1 10113U 22712ZN  26075.70034722  .00000000  00000+0  00000-0 0  9994
2 10113  65.0000 336.0000 0000000   0.0000  66.0000 13.16009679    16
CTC1_L_00375029-03
1 10114U 22187OT  26075.70034722  .00000000  00000+0  00000-0 0  9991
2 10114  65.0000 336.0000 0000000   0.0000 156.0000 13.16009679    17
CTC1_L_00375029-04
1 10115U 26496ZX  26075.70034722  .00000000  00000+0  00000-0 0  9999
2 10115  65.0000 336.0000 0000000   0.0000 246.0000 13.16009679    18
CTC1_L_00375030-01
1 10116U 23438CK  26075.70034722  .00000000  00000+0  00000-0 0  9993
2 10116  65.0000 348.0000 0000000   0.0000 348.0000 13.16009679    15
CTC1_L_00375030-02
1 10117U 22258VB  26075.70034722  .00000000  00000+0  00000-0 0  9993
2 10117  65.0000 348.0000 0000000   0.0000  78.0000 13.16009679    16
CTC1_L_00375030-03
1 10118U 26341EH  26075.70034722  .00000000  00000+0  00000-0 0  9991
2 10118  65.0000 348.0000 0000000   0.0000 168.0000 13.16009679    17
CTC1_L_00375030-04
1 10119U 24533SX  26075.70034722  .00000000  00000+0  00000-0 0  9993
2 10119  65.0000 348.0000 0000000   0.0000 258.0000 13.16009679    18
